H1 CPF 01  gfz 2021 06 23 00  6741 terrasarx 
H2 0702601  6201 31698    2021 06 23 00 59 42 2021 06 28 00 00 42   120 1 1  0 0 0
H9
10 0 59389  66222.000000  0    6855068.939   -681854.559     93138.103
10 0 59389  66342.000000  0    6762752.423   -851086.699    994856.452
10 0 59389  66462.000000  0    6549403.168  -1002765.615   1879058.577
10 0 59389  66582.000000  0    6219077.751  -1132153.661   2730170.721
10 0 59389  66702.000000  0    5777977.605  -1234995.182   3533205.025
10 0 59389  66822.000000  0    5234326.166  -1307627.928   4274029.102
10 0 59389  66942.000000  0    4598206.569  -1347081.739   4939618.696
10 0 59389  67062.000000  0    3881364.459  -1351159.922   5518286.954
10 0 59389  67182.000000  0    3096981.896  -1318502.711   5999887.803
10 0 59389  67302.000000  0    2259426.373  -1248632.430   6375989.076
10 0 59389  67422.000000  0    1383982.396  -1141978.943   6640014.415
10 0 59389  67542.000000  0     486568.283   -999884.898   6787353.037
10 0 59389  67662.000000  0    -416555.326   -824589.991   6815434.390
10 0 59389  67782.000000  0   -1309079.391   -619195.725   6723768.898
10 0 59389  67902.000000  0   -2174939.426   -387610.693   6513955.693
10 0 59389  68022.000000  0   -2998603.142   -134476.921   6189656.788
10 0 59389  68142.000000  0   -3765349.599    134921.394   5756538.387
10 0 59389  68262.000000  0   -4461535.895    414765.219   5222178.129
10 0 59389  68382.000000  0   -5074845.738    698822.388   4595938.377
10 0 59389  68502.000000  0   -5594515.563    980581.542   3888807.291
10 0 59389  68622.000000  0   -6011532.025   1253395.815   3113208.846
10 0 59389  68742.000000  0   -6318797.699   1510633.056   2282785.966
10 0 59389  68862.000000  0   -6511261.018   1745828.760   1412158.764
10 0 59389  68982.000000  0   -6586007.153   1952838.641    516662.289
10 0 59389  69102.000000  0   -6542305.353   2125986.714   -387931.918
10 0 59389  69222.000000  0   -6381611.518   2260204.064  -1285702.584
10 0 59389  69342.000000  0   -6107527.052   2351155.693  -2160867.279
10 0 59389  69462.000000  0   -5725715.267   2395352.680  -2998067.986
10 0 59389  69582.000000  0   -5243775.617   2390245.822  -3782646.530
10 0 59389  69702.000000  0   -4671081.429   2334298.197  -4500902.476
10 0 59389  69822.000000  0   -4018586.366   2227036.103  -5140329.483
10 0 59389  69942.000000  0   -3298604.819   2069077.825  -5689825.795
10 0 59389  70062.000000  0   -2524573.048   1862140.082  -6139877.156
10 0 59389  70182.000000  0   -1710794.238   1609022.037  -6482711.637
10 0 59389  70302.000000  0    -872172.312   1313567.106  -6712421.509
10 0 59389  70422.000000  0     -23942.349    980603.997  -6825054.102
10 0 59389  70542.000000  0     818599.617    615868.706  -6818671.811
10 0 59389  70662.000000  0    1640365.698    225907.873  -6693384.145
10 0 59389  70782.000000  0    2426741.219   -182036.282  -6451345.543
10 0 59389  70902.000000  0    3163838.943   -600156.442  -6096722.525
10 0 59389  71022.000000  0    3838741.799  -1020225.153  -5635628.881
10 0 59389  71142.000000  0    4439728.212  -1433751.575  -5076030.678
10 0 59389  71262.000000  0    4956480.112  -1832149.632  -4427620.864
10 0 59389  71382.000000  0    5380267.077  -2206913.301  -3701662.021
10 0 59389  71502.000000  0    5704103.454  -2549795.366  -2910799.882
10 0 59389  71622.000000  0    5922874.497  -2852986.237  -2068848.652
10 0 59389  71742.000000  0    6033427.062  -3109288.418  -1190551.598
10 0 59389  71862.000000  0    6034623.051  -3312282.295   -291321.819
10 0 59389  71982.000000  0    5927353.127  -3456479.324    613033.047
10 0 59389  72102.000000  0    5714510.307  -3537458.479   1506595.651
10 0 59389  72222.000000  0    5400922.403  -3551981.694   2373629.513
10 0 59389  72342.000000  0    4993243.472  -3498084.206   3198864.593
10 0 59389  72462.000000  0    4499810.596  -3375138.891   3967773.247
10 0 59389  72582.000000  0    3930469.191  -3183892.361   4666830.228
10 0 59389  72702.000000  0    3296370.170  -2926473.947   5283753.838
10 0 59389  72822.000000  0    2609743.530  -2606374.678   5807720.538
10 0 59389  72942.000000  0    1883656.513  -2228398.682   6229551.029
10 0 59389  73062.000000  0    1131760.054  -1798588.925   6541865.577
10 0 59389  73182.000000  0     368029.057  -1324128.150   6739207.055
10 0 59389  73302.000000  0    -393498.436   -813216.729   6818130.357
10 0 59389  73422.000000  0   -1138978.647   -274929.949   6777258.007
10 0 59389  73542.000000  0   -1855012.465    280942.883   6617302.545
10 0 59389  73662.000000  0   -2528885.323    844075.941   6341054.998
10 0 59389  73782.000000  0   -3148793.081   1403797.696   5953339.521
10 0 59389  73902.000000  0   -3704050.567   1949292.190   5460934.846
10 0 59389  74022.000000  0   -4185280.199   2469808.186   4872462.629
10 0 59389  74142.000000  0   -4584576.498   2954872.835   4198242.274
10 0 59389  74262.000000  0   -4895642.601   3394503.790   3450113.326
10 0 59389  74382.000000  0   -5113895.421   3779416.672   2641229.756
10 0 59389  74502.000000  0   -5236537.860   4101223.414   1785828.561
10 0 59389  74622.000000  0   -5262596.190   4352616.389    898975.274
10 0 59389  74742.000000  0   -5192919.320   4527532.399     -3708.768
10 0 59389  74862.000000  0   -5030141.292   4621292.137   -906329.183
10 0 59389  74982.000000  0   -4778608.167   4630713.573  -1793007.993
10 0 59389  75102.000000  0   -4444268.979   4554194.210  -2648172.516
10 0 59389  75222.000000  0   -4034535.369   4391759.445  -3456835.580
10 0 59389  75342.000000  0   -3558113.468   4145077.811  -4204861.070
10 0 59389  75462.000000  0   -3024813.768   3817443.419  -4879209.096
10 0 59389  75582.000000  0   -2445344.993   3413727.023  -5468156.875
10 0 59389  75702.000000  0   -1831096.997   2940298.535  -5961494.611
10 0 59389  75822.000000  0   -1193914.958   2404920.551  -6350693.090
10 0 59389  75942.000000  0    -545871.251   1816616.144  -6629039.236
10 0 59389  76062.000000  0     100960.236   1185515.408  -6791740.609
10 0 59389  76182.000000  0     734723.589    522682.085  -6835999.081
10 0 59389  76302.000000  0    1343993.408   -160076.613  -6761055.130
10 0 59389  76422.000000  0    1917976.459   -850416.324  -6568198.280
10 0 59389  76542.000000  0    2446697.901  -1535672.773  -6260746.842
10 0 59389  76662.000000  0    2921172.257  -2203088.209  -5843997.062
10 0 59389  76782.000000  0    3333555.792  -2840043.994  -5325142.654
10 0 59389  76902.000000  0    3677279.817  -3434299.185  -4713162.275
10 0 59389  77022.000000  0    3947158.658  -3974226.508  -4018673.039
10 0 59389  77142.000000  0    4139471.771  -4449041.452  -3253756.741
10 0 59389  77262.000000  0    4252019.930  -4849022.351  -2431758.172
10 0 59389  77382.000000  0    4284152.507  -5165715.705  -1567056.511
10 0 59389  77502.000000  0    4236762.605  -5392120.800   -674813.379
10 0 59389  77622.000000  0    4112251.393  -5522847.576    229296.960
10 0 59389  77742.000000  0    3914461.108  -5554244.382   1129369.452
10 0 59389  77862.000000  0    3648579.016  -5484491.623   2009557.065
10 0 59389  77982.000000  0    3321012.901  -5313657.011   2854359.298
10 0 59389  78102.000000  0    2939242.452  -5043713.716   3648902.217
10 0 59389  78222.000000  0    2511651.207  -4678519.503   4379206.262
10 0 59389  78342.000000  0    2047343.156  -4223758.125   5032435.547
10 0 59389  78462.000000  0    1555948.100  -3686844.495   5597123.785
10 0 59389  78582.000000  0    1047420.590  -3076796.188   6063373.809
10 0 59389  78702.000000  0     531836.518  -2404074.437   6423025.591
10 0 59389  78822.000000  0      19193.032  -1680399.510   6669792.003
10 0 59389  78942.000000  0    -480784.330   -918543.942   6799362.476
10 0 59389  79062.000000  0    -958824.883   -132105.377   6809474.726
10 0 59389  79182.000000  0   -1406283.825    664736.574   6699951.536
10 0 59389  79302.000000  0   -1815298.062   1457475.434   6472703.357
10 0 59389  79422.000000  0   -2178924.492   2231540.915   6131697.093
10 0 59389  79542.000000  0   -2491258.722   2972566.519   5682891.201
10 0 59389  79662.000000  0   -2747532.121   3666657.515   5134137.594
10 0 59389  79782.000000  0   -2944186.950   4300655.011   4495051.244
10 0 59389  79902.000000  0   -3078926.832   4862391.305   3776846.888
10 0 59389  80022.000000  0   -3150741.228   5340931.010   2992145.286
10 0 59389  80142.000000  0   -3159902.997   5726791.572   2154751.234
10 0 59389  80262.000000  0   -3107939.589   6012137.634   1279408.103
10 0 59389  80382.000000  0   -2997577.722   6190945.534    381533.707
10 0 59389  80502.000000  0   -2832662.994   6259133.723   -523058.590
10 0 59389  80622.000000  0   -2618057.041   6214654.509  -1418447.933
10 0 59389  80742.000000  0   -2359513.159   6057543.442  -2288897.740
10 0 59389  80862.000000  0   -2063532.935   5789923.161  -3119139.932
10 0 59389  80982.000000  0   -1737210.925   5415967.995  -3894644.943
10 0 59389  81102.000000  0   -1388071.109   4941828.709  -4601876.503
10 0 59389  81222.000000  0   -1023898.880   4375519.605  -5228523.611
10 0 59389  81342.000000  0    -652572.462   3726773.444  -5763707.999
10 0 59389  81462.000000  0    -281896.545   3006865.319  -6198164.798
10 0 59389  81582.000000  0      80557.783   2228409.237  -6524391.921
10 0 59389  81702.000000  0     427602.747   1405134.605  -6736767.480
10 0 59389  81822.000000  0     752571.732    551645.242  -6831637.843
10 0 59389  81942.000000  0    1049443.718   -316836.035  -6807373.505
10 0 59389  82062.000000  0    1312951.484  -1184733.852  -6664393.235
10 0 59389  82182.000000  0    1538672.390  -2036392.151  -6405156.232
10 0 59389  82302.000000  0    1723101.582  -2856348.922  -6034125.120
10 0 59389  82422.000000  0    1863706.545  -3629612.251  -5557698.914
10 0 59389  82542.000000  0    1958961.391  -4341935.046  -4984113.496
10 0 59389  82662.000000  0    2008360.443  -4980078.966  -4323308.681
99
